STARLINK-31504          
1 59303U 24056H   26068.43212827  .00000271  00000+0  19372-4 0  9993
2 59303  43.0012 232.2747 0001224 274.4841  85.5871 15.27566705111111
TEVEL2-9                
1 63237U 25052AD  26068.70229538  .00018694  00000+0  67240-3 0  9992
2 63237  97.4057 324.3929 0007990 124.2475 235.9522 15.28633834 54816
